[
  {
    "name": "KUIPER-00388",
    "noradId": "68922",
    "line1": "1 68922U 26098D   26180.50003471 -.02119308  00000+0 -11125+0 0  9993",
    "line2": "2 68922  51.8788  10.9088 0020551 186.4818 175.1235 15.18757816  5278"
  },
  {
    "name": "KUIPER-00405",
    "noradId": "68923",
    "line1": "1 68923U 26098E   26180.50003471 -.02134173  00000+0 -98188-1 0  9997",
    "line2": "2 68923  51.8786  10.0424 0012318 206.4940 233.6831 15.23415094  2389"
  },
  {
    "name": "KUIPER-00408",
    "noradId": "68924",
    "line1": "1 68924U 26098F   26180.53336925 -.00002253  00000+0 -70413-4 0  9999",
    "line2": "2 68924  51.8769  10.4410 0015030 200.5190 159.5191 15.26972456  9213"
  },
  {
    "name": "KUIPER-00409",
    "noradId": "68925",
    "line1": "1 68925U 26098G   26179.93947862  .00026803  00000+0  87640-3 0  9994",
    "line2": "2 68925  51.8754  11.7477 0006731 207.6731 152.3896 15.31506962  9148"
  },
  {
    "name": "KUIPER-00410",
    "noradId": "68926",
    "line1": "1 68926U 26098H   26179.74392685  .00006427  00000+0  25017-3 0  9991",
    "line2": "2 68926  51.8778  14.1439 0013899 195.2839 164.7725 15.27175661  9099"
  },
  {
    "name": "KUIPER-00412",
    "noradId": "68927",
    "line1": "1 68927U 26098J   26179.82473093  .00017389  00000+0  47829-3 0  9998",
    "line2": "2 68927  51.8788  11.0318 0002240 256.8443 103.2294 15.37274760  9142"
  },
  {
    "name": "KUIPER-00413",
    "noradId": "68928",
    "line1": "1 68928U 26098K   26179.91668981  .00035959  00000+0  16490-2 0  9993",
    "line2": "2 68928  51.8789  13.8396 0023526 204.7053 111.7266 15.19868058  5406"
  },
  {
    "name": "KUIPER-00414",
    "noradId": "68929",
    "line1": "1 68929U 26098L   26180.50003471 -.00094981  00000+0 -12745-1 0  9998",
    "line2": "2 68929  51.9148  16.3109 0003783 203.8503 258.4319 14.79469575  4481"
  },
  {
    "name": "KUIPER-00415",
    "noradId": "68930",
    "line1": "1 68930U 26098M   26179.97184846 -.00010048  00000+0 -32272-3 0  9996",
    "line2": "2 68930  51.8776  11.9765 0010768 180.9853 179.1112 15.30563384  9141"
  },
  {
    "name": "KUIPER-00416",
    "noradId": "68931",
    "line1": "1 68931U 26098N   26180.53210906  .00024182  00000+0  65927-3 0  9993",
    "line2": "2 68931  51.8745   7.5065 0000648 220.4176 139.6762 15.37329896  9255"
  },
  {
    "name": "KUIPER-00420",
    "noradId": "68932",
    "line1": "1 68932U 26098P   26180.50644116  .00023350  00000+0  65993-3 0  9994",
    "line2": "2 68932  51.8767   8.0862 0003059 228.3557 131.7168 15.36226089  9241"
  },
  {
    "name": "KUIPER-00421",
    "noradId": "68933",
    "line1": "1 68933U 26098Q   26179.81474709  .00013504  00000+0  46022-3 0  9998",
    "line2": "2 68933  51.8789  12.4255 0007976 171.2538 188.8586 15.30645385  9120"
  },
  {
    "name": "KUIPER-00425",
    "noradId": "68934",
    "line1": "1 68934U 26098R   26180.50003471  .00033418  00000+0  12734-2 0  9999",
    "line2": "2 68934  51.8762  10.6102 0016357 195.0662 329.5442 15.26289372  5584"
  },
  {
    "name": "KUIPER-00430",
    "noradId": "68935",
    "line1": "1 68935U 26098S   26180.53409043  .00023180  00000+0  85342-3 0  9999",
    "line2": "2 68935  51.8771  10.4476 0020650 198.5534 161.4698 15.27550670  9217"
  },
  {
    "name": "KUIPER-00431",
    "noradId": "68936",
    "line1": "1 68936U 26098T   26180.50003471 -.00560474  00000+0 -31122-1 0  9991",
    "line2": "2 68936  51.8800  11.0765 0015725 184.2839 112.3091 15.15401781  5253"
  }
]