{"fetchedAt":"2026-06-29T18:07:57.361Z","satellites":[{"id":"68922","name":"KUIPER-00388","constellationId":"kuiper","omm":{"OBJECT_NAME":"KUIPER-00388","OBJECT_ID":"2026-098D","EPOCH":"2026-06-29T12:00:02.998944","MEAN_MOTION":15.18757816,"ECCENTRICITY":0.0020551,"INCLINATION":51.8788,"RA_OF_ASC_NODE":10.9088,"ARG_OF_PERICENTER":186.4818,"MEAN_ANOMALY":175.1235,"EPHEMERIS_TYPE":0,"CLASSIFICATION_TYPE":"U","NORAD_CAT_ID":68922,"ELEMENT_SET_NO":999,"REV_AT_EPOCH":527,"BSTAR":-0.11125,"MEAN_MOTION_DOT":-0.02119308,"MEAN_MOTION_DDOT":0}},{"id":"68923","name":"KUIPER-00405","constellationId":"kuiper","omm":{"OBJECT_NAME":"KUIPER-00405","OBJECT_ID":"2026-098E","EPOCH":"2026-06-29T12:00:02.998944","MEAN_MOTION":15.23415094,"ECCENTRICITY":0.0012318,"INCLINATION":51.8786,"RA_OF_ASC_NODE":10.0424,"ARG_OF_PERICENTER":206.494,"MEAN_ANOMALY":233.6831,"EPHEMERIS_TYPE":0,"CLASSIFICATION_TYPE":"U","NORAD_CAT_ID":68923,"ELEMENT_SET_NO":999,"REV_AT_EPOCH":238,"BSTAR":-0.098188,"MEAN_MOTION_DOT":-0.02134173,"MEAN_MOTION_DDOT":0}},{"id":"68924","name":"KUIPER-00408","constellationId":"kuiper","omm":{"OBJECT_NAME":"KUIPER-00408","OBJECT_ID":"2026-098F","EPOCH":"2026-06-29T12:48:03.103200","MEAN_MOTION":15.26972456,"ECCENTRICITY":0.001503,"INCLINATION":51.8769,"RA_OF_ASC_NODE":10.441,"ARG_OF_PERICENTER":200.519,"MEAN_ANOMALY":159.5191,"EPHEMERIS_TYPE":0,"CLASSIFICATION_TYPE":"U","NORAD_CAT_ID":68924,"ELEMENT_SET_NO":999,"REV_AT_EPOCH":921,"BSTAR":-0.000070413,"MEAN_MOTION_DOT":-0.00002253,"MEAN_MOTION_DDOT":0}},{"id":"68925","name":"KUIPER-00409","constellationId":"kuiper","omm":{"OBJECT_NAME":"KUIPER-00409","OBJECT_ID":"2026-098G","EPOCH":"2026-06-28T22:32:50.952768","MEAN_MOTION":15.31506962,"ECCENTRICITY":0.00067315,"INCLINATION":51.8754,"RA_OF_ASC_NODE":11.7477,"ARG_OF_PERICENTER":207.6731,"MEAN_ANOMALY":152.3896,"EPHEMERIS_TYPE":0,"CLASSIFICATION_TYPE":"U","NORAD_CAT_ID":68925,"ELEMENT_SET_NO":999,"REV_AT_EPOCH":914,"BSTAR":0.00087639953,"MEAN_MOTION_DOT":0.00026803,"MEAN_MOTION_DDOT":0}},{"id":"68926","name":"KUIPER-00410","constellationId":"kuiper","omm":{"OBJECT_NAME":"KUIPER-00410","OBJECT_ID":"2026-098H","EPOCH":"2026-06-28T17:51:15.279840","MEAN_MOTION":15.27175661,"ECCENTRICITY":0.00138998,"INCLINATION":51.8778,"RA_OF_ASC_NODE":14.1439,"ARG_OF_PERICENTER":195.2839,"MEAN_ANOMALY":164.7725,"EPHEMERIS_TYPE":0,"CLASSIFICATION_TYPE":"U","NORAD_CAT_ID":68926,"ELEMENT_SET_NO":999,"REV_AT_EPOCH":909,"BSTAR":0.00025016593,"MEAN_MOTION_DOT":0.00006427,"MEAN_MOTION_DDOT":0}},{"id":"68927","name":"KUIPER-00412","constellationId":"kuiper","omm":{"OBJECT_NAME":"KUIPER-00412","OBJECT_ID":"2026-098J","EPOCH":"2026-06-28T19:47:36.752352","MEAN_MOTION":15.3727476,"ECCENTRICITY":0.00022406,"INCLINATION":51.8788,"RA_OF_ASC_NODE":11.0318,"ARG_OF_PERICENTER":256.8443,"MEAN_ANOMALY":103.2294,"EPHEMERIS_TYPE":0,"CLASSIFICATION_TYPE":"U","NORAD_CAT_ID":68927,"ELEMENT_SET_NO":999,"REV_AT_EPOCH":914,"BSTAR":0.00047828641,"MEAN_MOTION_DOT":0.00017389,"MEAN_MOTION_DDOT":0}},{"id":"68928","name":"KUIPER-00413","constellationId":"kuiper","omm":{"OBJECT_NAME":"KUIPER-00413","OBJECT_ID":"2026-098K","EPOCH":"2026-06-28T22:00:01.999584","MEAN_MOTION":15.19868058,"ECCENTRICITY":0.00235265,"INCLINATION":51.8789,"RA_OF_ASC_NODE":13.8396,"ARG_OF_PERICENTER":204.7053,"MEAN_ANOMALY":111.7266,"EPHEMERIS_TYPE":0,"CLASSIFICATION_TYPE":"U","NORAD_CAT_ID":68928,"ELEMENT_SET_NO":999,"REV_AT_EPOCH":540,"BSTAR":0.0016489857,"MEAN_MOTION_DOT":0.00035959,"MEAN_MOTION_DDOT":0}},{"id":"68929","name":"KUIPER-00414","constellationId":"kuiper","omm":{"OBJECT_NAME":"KUIPER-00414","OBJECT_ID":"2026-098L","EPOCH":"2026-06-29T12:00:02.998944","MEAN_MOTION":14.79469575,"ECCENTRICITY":0.0003783,"INCLINATION":51.9148,"RA_OF_ASC_NODE":16.3109,"ARG_OF_PERICENTER":203.8503,"MEAN_ANOMALY":258.4319,"EPHEMERIS_TYPE":0,"CLASSIFICATION_TYPE":"U","NORAD_CAT_ID":68929,"ELEMENT_SET_NO":999,"REV_AT_EPOCH":448,"BSTAR":-0.012745,"MEAN_MOTION_DOT":-0.00094981,"MEAN_MOTION_DDOT":0}},{"id":"68930","name":"KUIPER-00415","constellationId":"kuiper","omm":{"OBJECT_NAME":"KUIPER-00415","OBJECT_ID":"2026-098M","EPOCH":"2026-06-28T23:19:27.706944","MEAN_MOTION":15.30563384,"ECCENTRICITY":0.00107684,"INCLINATION":51.8776,"RA_OF_ASC_NODE":11.9765,"ARG_OF_PERICENTER":180.9853,"MEAN_ANOMALY":179.1112,"EPHEMERIS_TYPE":0,"CLASSIFICATION_TYPE":"U","NORAD_CAT_ID":68930,"ELEMENT_SET_NO":999,"REV_AT_EPOCH":914,"BSTAR":-0.00032272439,"MEAN_MOTION_DOT":-0.00010048,"MEAN_MOTION_DDOT":0}},{"id":"68931","name":"KUIPER-00416","constellationId":"kuiper","omm":{"OBJECT_NAME":"KUIPER-00416","OBJECT_ID":"2026-098N","EPOCH":"2026-06-29T12:46:14.222784","MEAN_MOTION":15.37329896,"ECCENTRICITY":0.0000648,"INCLINATION":51.8745,"RA_OF_ASC_NODE":7.5065,"ARG_OF_PERICENTER":220.4176,"MEAN_ANOMALY":139.6762,"EPHEMERIS_TYPE":0,"CLASSIFICATION_TYPE":"U","NORAD_CAT_ID":68931,"ELEMENT_SET_NO":999,"REV_AT_EPOCH":925,"BSTAR":0.00065927,"MEAN_MOTION_DOT":0.00024182,"MEAN_MOTION_DDOT":0}},{"id":"68932","name":"KUIPER-00420","constellationId":"kuiper","omm":{"OBJECT_NAME":"KUIPER-00420","OBJECT_ID":"2026-098P","EPOCH":"2026-06-29T12:09:16.516224","MEAN_MOTION":15.36226089,"ECCENTRICITY":0.0003059,"INCLINATION":51.8767,"RA_OF_ASC_NODE":8.0862,"ARG_OF_PERICENTER":228.3557,"MEAN_ANOMALY":131.7168,"EPHEMERIS_TYPE":0,"CLASSIFICATION_TYPE":"U","NORAD_CAT_ID":68932,"ELEMENT_SET_NO":999,"REV_AT_EPOCH":924,"BSTAR":0.00065993,"MEAN_MOTION_DOT":0.0002335,"MEAN_MOTION_DDOT":0}},{"id":"68933","name":"KUIPER-00421","constellationId":"kuiper","omm":{"OBJECT_NAME":"KUIPER-00421","OBJECT_ID":"2026-098Q","EPOCH":"2026-06-28T19:33:14.148576","MEAN_MOTION":15.30645385,"ECCENTRICITY":0.00079764,"INCLINATION":51.8789,"RA_OF_ASC_NODE":12.4255,"ARG_OF_PERICENTER":171.2538,"MEAN_ANOMALY":188.8586,"EPHEMERIS_TYPE":0,"CLASSIFICATION_TYPE":"U","NORAD_CAT_ID":68933,"ELEMENT_SET_NO":999,"REV_AT_EPOCH":912,"BSTAR":0.00046022086,"MEAN_MOTION_DOT":0.00013504,"MEAN_MOTION_DDOT":0}},{"id":"68934","name":"KUIPER-00425","constellationId":"kuiper","omm":{"OBJECT_NAME":"KUIPER-00425","OBJECT_ID":"2026-098R","EPOCH":"2026-06-29T12:00:02.998944","MEAN_MOTION":15.26289372,"ECCENTRICITY":0.0016357,"INCLINATION":51.8762,"RA_OF_ASC_NODE":10.6102,"ARG_OF_PERICENTER":195.0662,"MEAN_ANOMALY":329.5442,"EPHEMERIS_TYPE":0,"CLASSIFICATION_TYPE":"U","NORAD_CAT_ID":68934,"ELEMENT_SET_NO":999,"REV_AT_EPOCH":558,"BSTAR":0.0012734,"MEAN_MOTION_DOT":0.00033418,"MEAN_MOTION_DDOT":0}},{"id":"68935","name":"KUIPER-00430","constellationId":"kuiper","omm":{"OBJECT_NAME":"KUIPER-00430","OBJECT_ID":"2026-098S","EPOCH":"2026-06-29T12:49:05.413152","MEAN_MOTION":15.2755067,"ECCENTRICITY":0.002065,"INCLINATION":51.8771,"RA_OF_ASC_NODE":10.4476,"ARG_OF_PERICENTER":198.5534,"MEAN_ANOMALY":161.4698,"EPHEMERIS_TYPE":0,"CLASSIFICATION_TYPE":"U","NORAD_CAT_ID":68935,"ELEMENT_SET_NO":999,"REV_AT_EPOCH":921,"BSTAR":0.00085342,"MEAN_MOTION_DOT":0.0002318,"MEAN_MOTION_DDOT":0}},{"id":"68936","name":"KUIPER-00431","constellationId":"kuiper","omm":{"OBJECT_NAME":"KUIPER-00431","OBJECT_ID":"2026-098T","EPOCH":"2026-06-29T12:00:02.998944","MEAN_MOTION":15.15401781,"ECCENTRICITY":0.0015725,"INCLINATION":51.88,"RA_OF_ASC_NODE":11.0765,"ARG_OF_PERICENTER":184.2839,"MEAN_ANOMALY":112.3091,"EPHEMERIS_TYPE":0,"CLASSIFICATION_TYPE":"U","NORAD_CAT_ID":68936,"ELEMENT_SET_NO":999,"REV_AT_EPOCH":525,"BSTAR":-0.031122,"MEAN_MOTION_DOT":-0.00560474,"MEAN_MOTION_DDOT":0}}]}